{
  "type": "FeatureCollection",
  "features": [
    {
      "type": "Feature",
      "properties": {
        "norad_id": 34913,
        "name": "COSMOS 2251 DEB",
        "group": "cosmos-2251-debris",
        "lat": -22.925265323140174,
        "lon": -68.87835229608604,
        "alt_km": 777.5448651639554,
        "timestamp": "2025-12-04T05:42:43.767568+00:00",
        "meta_object_name": "COSMOS 2251 DEB",
        "meta_object_id": "1993-036ADJ",
        "meta_epoch": "2025-12-02T16:08:10.454208",
        "meta_mean_motion": 14.34632081,
        "meta_eccentricity": 0.00200026,
        "meta_inclination": 74.0276,
        "meta_ra_of_asc_node": 300.9473,
        "meta_arg_of_pericenter": 54.1655,
        "meta_mean_anomaly": 119.3628,
        "meta_ephemeris_type": 0,
        "meta_classification_type": "U",
        "meta_norad_cat_id": 34913,
        "meta_element_set_no": 999,
        "meta_rev_at_epoch": 65043,
        "meta_bstar": 7.0680463e-05,
        "meta_mean_motion_dot": 1.74e-06,
        "meta_mean_motion_ddot": 0,
        "tle_line1": "1 34913U 93036ADJ 25336.67234322  .00000174  00000+0  70680-4 0  9995",
        "tle_line2": "2 34913  74.0276 300.9473 0020002  54.1655 119.3628 14.34632081650434"
      },
      "geometry": {
        "type": "Point",
        "coordinates": [
          -68.87835229608604,
          -22.925265323140174
        ]
      }
    },
    {
      "type": "Feature",
      "properties": {
        "norad_id": 34918,
        "name": "COSMOS 2251 DEB",
        "group": "cosmos-2251-debris",
        "lat": 33.44293892662159,
        "lon": -19.280568681089328,
        "alt_km": 690.5907973632229,
        "timestamp": "2025-12-04T05:42:43.767578+00:00",
        "meta_object_name": "COSMOS 2251 DEB",
        "meta_object_id": "1993-036ADP",
        "meta_epoch": "2025-12-02T07:49:20.078112",
        "meta_mean_motion": 14.60858458,
        "meta_eccentricity": 0.0034182,
        "meta_inclination": 74.0712,
        "meta_ra_of_asc_node": 333.4916,
        "meta_arg_of_pericenter": 302.4495,
        "meta_mean_anomaly": 120.4085,
        "meta_ephemeris_type": 0,
        "meta_classification_type": "U",
        "meta_norad_cat_id": 34918,
        "meta_element_set_no": 999,
        "meta_rev_at_epoch": 65184,
        "meta_bstar": 0.0024749,
        "meta_mean_motion_dot": 0.00012194,
        "meta_mean_motion_ddot": 0,
        "tle_line1": "1 34918U 93036ADP 25336.32592683  .00012194  00000+0  24749-2 0  9997",
        "tle_line2": "2 34918  74.0712 333.4916 0034182 302.4495 120.4085 14.60858458651845"
      },
      "geometry": {
        "type": "Point",
        "coordinates": [
          -19.280568681089328,
          33.44293892662159
        ]
      }
    },
    {
      "type": "Feature",
      "properties": {
        "norad_id": 34924,
        "name": "COSMOS 2251 DEB",
        "group": "cosmos-2251-debris",
        "lat": 59.69346040551808,
        "lon": 134.98186957075237,
        "alt_km": 711.5144654640917,
        "timestamp": "2025-12-04T05:42:43.767588+00:00",
        "meta_object_name": "COSMOS 2251 DEB",
        "meta_object_id": "1993-036ADV",
        "meta_epoch": "2025-12-03T13:33:03.347712",
        "meta_mean_motion": 14.59870223,
        "meta_eccentricity": 0.00552594,
        "meta_inclination": 74.0398,
        "meta_ra_of_asc_node": 106.9505,
        "meta_arg_of_pericenter": 193.7094,
        "meta_mean_anomaly": 293.1783,
        "meta_ephemeris_type": 0,
        "meta_classification_type": "U",
        "meta_norad_cat_id": 34924,
        "meta_element_set_no": 999,
        "meta_rev_at_epoch": 87589,
        "meta_bstar": 0.0017559508,
        "meta_mean_motion_dot": 8.565e-05,
        "meta_mean_motion_ddot": 0,
        "tle_line1": "1 34924U 93036ADV 25337.56462208  .00008565  00000+0  17560-2 0  9990",
        "tle_line2": "2 34924  74.0398 106.9505 0055259 193.7094 293.1783 14.59870223875891"
      },
      "geometry": {
        "type": "Point",
        "coordinates": [
          134.98186957075237,
          59.69346040551808
        ]
      }
    },
    {
      "type": "Feature",
      "properties": {
        "norad_id": 34944,
        "name": "COSMOS 2251 DEB",
        "group": "cosmos-2251-debris",
        "lat": 46.271603769936206,
        "lon": 49.621238871221195,
        "alt_km": 709.075449624097,
        "timestamp": "2025-12-04T05:42:43.767598+00:00",
        "meta_object_name": "COSMOS 2251 DEB",
        "meta_object_id": "1993-036ADX",
        "meta_epoch": "2025-12-03T10:26:13.837632",
        "meta_mean_motion": 14.14147852,
        "meta_eccentricity": 0.02196989,
        "meta_inclination": 73.7497,
        "meta_ra_of_asc_node": 248.822,
        "meta_arg_of_pericenter": 98.0447,
        "meta_mean_anomaly": 264.5682,
        "meta_ephemeris_type": 0,
        "meta_classification_type": "U",
        "meta_norad_cat_id": 34944,
        "meta_element_set_no": 999,
        "meta_rev_at_epoch": 63951,
        "meta_bstar": 0.00087621721,
        "meta_mean_motion_dot": 2.079e-05,
        "meta_mean_motion_ddot": 0,
        "tle_line1": "1 34944U 93036ADX 25337.43488238  .00002079  00000+0  87622-3 0  9990",
        "tle_line2": "2 34944  73.7497 248.8220 0219698  98.0447 264.5682 14.14147852639510"
      },
      "geometry": {
        "type": "Point",
        "coordinates": [
          49.621238871221195,
          46.271603769936206
        ]
      }
    },
    {
      "type": "Feature",
      "properties": {
        "norad_id": 34946,
        "name": "COSMOS 2251 DEB",
        "group": "cosmos-2251-debris",
        "lat": -27.364834490674927,
        "lon": -173.0694202482888,
        "alt_km": 680.4637966342179,
        "timestamp": "2025-12-04T05:42:43.767608+00:00",
        "meta_object_name": "COSMOS 2251 DEB",
        "meta_object_id": "1993-036ADZ",
        "meta_epoch": "2025-12-03T18:54:41.961024",
        "meta_mean_motion": 14.61916973,
        "meta_eccentricity": 0.00490667,
        "meta_inclination": 74.0235,
        "meta_ra_of_asc_node": 359.265,
        "meta_arg_of_pericenter": 139.3091,
        "meta_mean_anomaly": 221.1759,
        "meta_ephemeris_type": 0,
        "meta_classification_type": "U",
        "meta_norad_cat_id": 34946,
        "meta_element_set_no": 999,
        "meta_rev_at_epoch": 88078,
        "meta_bstar": 0.00080246864,
        "meta_mean_motion_dot": 4.057e-05,
        "meta_mean_motion_ddot": 0,
        "tle_line1": "1 34946U 93036ADZ 25337.78798566  .00004057  00000+0  80247-3 0  9992",
        "tle_line2": "2 34946  74.0235 359.2650 0049066 139.3091 221.1759 14.61916973880785"
      },
      "geometry": {
        "type": "Point",
        "coordinates": [
          -173.0694202482888,
          -27.364834490674927
        ]
      }
    },
    {
      "type": "Feature",
      "properties": {
        "norad_id": 34949,
        "name": "COSMOS 2251 DEB",
        "group": "cosmos-2251-debris",
        "lat": 71.70181705851202,
        "lon": -113.82005304705291,
        "alt_km": 697.6449697743346,
        "timestamp": "2025-12-04T05:42:43.767618+00:00",
        "meta_object_name": "COSMOS 2251 DEB",
        "meta_object_id": "1993-036AEC",
        "meta_epoch": "2025-12-03T03:11:45.204576",
        "meta_mean_motion": 14.73888049,
        "meta_eccentricity": 0.00804743,
        "meta_inclination": 74.0167,
        "meta_ra_of_asc_node": 128.421,
        "meta_arg_of_pericenter": 275.6913,
        "meta_mean_anomaly": 83.5088,
        "meta_ephemeris_type": 0,
        "meta_classification_type": "U",
        "meta_norad_cat_id": 34949,
        "meta_element_set_no": 999,
        "meta_rev_at_epoch": 88220,
        "meta_bstar": 0.00069404332,
        "meta_mean_motion_dot": 4.76e-05,
        "meta_mean_motion_ddot": 0,
        "tle_line1": "1 34949U 93036AEC 25337.13316209  .00004760  00000+0  69404-3 0  9997",
        "tle_line2": "2 34949  74.0167 128.4210 0080474 275.6913  83.5088 14.73888049882204"
      },
      "geometry": {
        "type": "Point",
        "coordinates": [
          -113.82005304705291,
          71.70181705851202
        ]
      }
    },
    {
      "type": "Feature",
      "properties": {
        "norad_id": 34953,
        "name": "COSMOS 2251 DEB",
        "group": "cosmos-2251-debris",
        "lat": -46.418272793047095,
        "lon": -118.67399108931465,
        "alt_km": 711.1860076813791,
        "timestamp": "2025-12-04T05:42:43.767628+00:00",
        "meta_object_name": "COSMOS 2251 DEB",
        "meta_object_id": "1993-036AEG",
        "meta_epoch": "2025-12-03T04:17:18.808224",
        "meta_mean_motion": 14.6881213,
        "meta_eccentricity": 0.00576151,
        "meta_inclination": 74.0941,
        "meta_ra_of_asc_node": 45.9321,
        "meta_arg_of_pericenter": 40.9172,
        "meta_mean_anomaly": 348.9233,
        "meta_ephemeris_type": 0,
        "meta_classification_type": "U",
        "meta_norad_cat_id": 34953,
        "meta_element_set_no": 999,
        "meta_rev_at_epoch": 87988,
        "meta_bstar": 0.0010926794,
        "meta_mean_motion_dot": 6.516e-05,
        "meta_mean_motion_ddot": 0,
        "tle_line1": "1 34953U 93036AEG 25337.17868991  .00006516  00000+0  10927-2 0  9992",
        "tle_line2": "2 34953  74.0941  45.9321 0057615  40.9172 348.9233 14.68812130879888"
      },
      "geometry": {
        "type": "Point",
        "coordinates": [
          -118.67399108931465,
          -46.418272793047095
        ]
      }
    }
  ]
}